{
  "type": "FeatureCollection",
  "features": [
    {
      "type": "Feature",
      "properties": {
        "norad_id": 43706,
        "name": "BEIDOU-3 M17 (C36)",
        "group": "beidou",
        "lat": -47.04922239628613,
        "lon": 137.2868303051001,
        "alt_km": 21517.124208685513,
        "timestamp": "2025-12-24T16:52:41.797205+00:00",
        "meta_object_name": "BEIDOU-3 M17 (C36)",
        "meta_object_id": "2018-093A",
        "meta_epoch": "2025-12-22T11:03:17.644896",
        "meta_mean_motion": 1.86228432,
        "meta_eccentricity": 0.00060427,
        "meta_inclination": 54.173,
        "meta_ra_of_asc_node": 188.2918,
        "meta_arg_of_pericenter": 307.405,
        "meta_mean_anomaly": 284.4943,
        "meta_ephemeris_type": 0,
        "meta_classification_type": "U",
        "meta_norad_cat_id": 43706,
        "meta_element_set_no": 999,
        "meta_rev_at_epoch": 4824,
        "meta_bstar": 0,
        "meta_mean_motion_dot": 9.4e-07,
        "meta_mean_motion_ddot": 0,
        "tle_line1": "1 43706U 18093A   25356.46062089  .00000094  00000+0  00000+0 0  9998",
        "tle_line2": "2 43706  54.1730 188.2918 0006042 307.4050 284.4943  1.86228432 48248"
      },
      "geometry": {
        "type": "Point",
        "coordinates": [
          137.2868303051001,
          -47.04922239628613
        ]
      }
    },
    {
      "type": "Feature",
      "properties": {
        "norad_id": 43707,
        "name": "BEIDOU-3 M18 (C37)",
        "group": "beidou",
        "lat": 22.586195074359793,
        "lon": -154.29372046669025,
        "alt_km": 21511.560586075364,
        "timestamp": "2025-12-24T16:52:41.797216+00:00",
        "meta_object_name": "BEIDOU-3 M18 (C37)",
        "meta_object_id": "2018-093B",
        "meta_epoch": "2025-12-23T01:12:21.238848",
        "meta_mean_motion": 1.86226616,
        "meta_eccentricity": 0.0006147,
        "meta_inclination": 54.1741,
        "meta_ra_of_asc_node": 188.2636,
        "meta_arg_of_pericenter": 354.1254,
        "meta_mean_anomaly": 5.9078,
        "meta_ephemeris_type": 0,
        "meta_classification_type": "U",
        "meta_norad_cat_id": 43707,
        "meta_element_set_no": 999,
        "meta_rev_at_epoch": 4825,
        "meta_bstar": 0,
        "meta_mean_motion_dot": 9.6e-07,
        "meta_mean_motion_ddot": 0,
        "tle_line1": "1 43707U 18093B   25357.05024582  .00000096  00000+0  00000+0 0  9993",
        "tle_line2": "2 43707  54.1741 188.2636 0006147 354.1254   5.9078  1.86226616 48257"
      },
      "geometry": {
        "type": "Point",
        "coordinates": [
          -154.29372046669025,
          22.586195074359793
        ]
      }
    },
    {
      "type": "Feature",
      "properties": {
        "norad_id": 44231,
        "name": "BEIDOU-2 G8 (C01)",
        "group": "beidou",
        "lat": 1.427995620580394,
        "lon": 131.17571705357014,
        "alt_km": 35817.342439229375,
        "timestamp": "2025-12-24T16:52:41.797228+00:00",
        "meta_object_name": "BEIDOU-2 G8 (C01)",
        "meta_object_id": "2019-027A",
        "meta_epoch": "2025-12-24T06:56:18.050784",
        "meta_mean_motion": 1.00274864,
        "meta_eccentricity": 0.00083051,
        "meta_inclination": 1.6893,
        "meta_ra_of_asc_node": 74.7354,
        "meta_arg_of_pericenter": 259.2231,
        "meta_mean_anomaly": 7.6859,
        "meta_ephemeris_type": 0,
        "meta_classification_type": "U",
        "meta_norad_cat_id": 44231,
        "meta_element_set_no": 999,
        "meta_rev_at_epoch": 2432,
        "meta_bstar": 0,
        "meta_mean_motion_dot": -2.26e-06,
        "meta_mean_motion_ddot": 0,
        "tle_line1": "1 44231U 19027A   25358.28909781 -.00000226  00000+0  00000+0 0  9999",
        "tle_line2": "2 44231   1.6893  74.7354 0008305 259.2231   7.6859  1.00274864 24321"
      },
      "geometry": {
        "type": "Point",
        "coordinates": [
          131.17571705357014,
          1.427995620580394
        ]
      }
    },
    {
      "type": "Feature",
      "properties": {
        "norad_id": 44337,
        "name": "BEIDOU-3 IGSO-2 (C39)",
        "group": "beidou",
        "lat": -41.5860471277343,
        "lon": 122.28444141835455,
        "alt_km": 35829.816094648806,
        "timestamp": "2025-12-24T16:52:41.797241+00:00",
        "meta_object_name": "BEIDOU-3 IGSO-2 (C39)",
        "meta_object_id": "2019-035A",
        "meta_epoch": "2025-12-23T20:34:24.431808",
        "meta_mean_motion": 1.00267916,
        "meta_eccentricity": 0.00378021,
        "meta_inclination": 55.2291,
        "meta_ra_of_asc_node": 160.4037,
        "meta_arg_of_pericenter": 202.4581,
        "meta_mean_anomaly": 157.7229,
        "meta_ephemeris_type": 0,
        "meta_classification_type": "U",
        "meta_norad_cat_id": 44337,
        "meta_element_set_no": 999,
        "meta_rev_at_epoch": 2391,
        "meta_bstar": 0,
        "meta_mean_motion_dot": -7.4e-07,
        "meta_mean_motion_ddot": 0,
        "tle_line1": "1 44337U 19035A   25357.85722722 -.00000074  00000+0  00000+0 0  9996",
        "tle_line2": "2 44337  55.2291 160.4037 0037802 202.4581 157.7229  1.00267916 23910"
      },
      "geometry": {
        "type": "Point",
        "coordinates": [
          122.28444141835455,
          -41.5860471277343
        ]
      }
    },
    {
      "type": "Feature",
      "properties": {
        "norad_id": 44542,
        "name": "BEIDOU-3 M24 (C46)",
        "group": "beidou",
        "lat": -15.586360663424369,
        "lon": 177.08254565836117,
        "alt_km": 21511.60577419062,
        "timestamp": "2025-12-24T16:52:41.797253+00:00",
        "meta_object_name": "BEIDOU-3 M24 (C46)",
        "meta_object_id": "2019-061A",
        "meta_epoch": "2025-12-23T15:47:40.430112",
        "meta_mean_motion": 1.86229437,
        "meta_eccentricity": 0.00095913,
        "meta_inclination": 54.4006,
        "meta_ra_of_asc_node": 188.6475,
        "meta_arg_of_pericenter": 26.0313,
        "meta_mean_anomaly": 334.0556,
        "meta_ephemeris_type": 0,
        "meta_classification_type": "U",
        "meta_norad_cat_id": 44542,
        "meta_element_set_no": 999,
        "meta_rev_at_epoch": 4252,
        "meta_bstar": 0,
        "meta_mean_motion_dot": 9.9e-07,
        "meta_mean_motion_ddot": 0,
        "tle_line1": "1 44542U 19061A   25357.65810683  .00000099  00000+0  00000+0 0  9991",
        "tle_line2": "2 44542  54.4006 188.6475 0009591  26.0313 334.0556  1.86229437 42529"
      },
      "geometry": {
        "type": "Point",
        "coordinates": [
          177.08254565836117,
          -15.586360663424369
        ]
      }
    },
    {
      "type": "Feature",
      "properties": {
        "norad_id": 44543,
        "name": "BEIDOU-3 M23 (C45)",
        "group": "beidou",
        "lat": -51.175807072205565,
        "lon": 71.54273143120786,
        "alt_km": 21545.451343848024,
        "timestamp": "2025-12-24T16:52:41.797265+00:00",
        "meta_object_name": "BEIDOU-3 M23 (C45)",
        "meta_object_id": "2019-061B",
        "meta_epoch": "2025-12-24T01:09:49.421952",
        "meta_mean_motion": 1.86227524,
        "meta_eccentricity": 0.00060474,
        "meta_inclination": 54.3997,
        "meta_ra_of_asc_node": 188.6027,
        "meta_arg_of_pericenter": 26.1168,
        "meta_mean_anomaly": 148.3907,
        "meta_ephemeris_type": 0,
        "meta_classification_type": "U",
        "meta_norad_cat_id": 44543,
        "meta_element_set_no": 999,
        "meta_rev_at_epoch": 4253,
        "meta_bstar": 0,
        "meta_mean_motion_dot": 1.01e-06,
        "meta_mean_motion_ddot": 0,
        "tle_line1": "1 44543U 19061B   25358.04848868  .00000101  00000+0  00000+0 0  9996",
        "tle_line2": "2 44543  54.3997 188.6027 0006047  26.1168 148.3907  1.86227524 42535"
      },
      "geometry": {
        "type": "Point",
        "coordinates": [
          71.54273143120786,
          -51.175807072205565
        ]
      }
    },
    {
      "type": "Feature",
      "properties": {
        "norad_id": 44793,
        "name": "BEIDOU-3 M22 (C44)",
        "group": "beidou",
        "lat": 54.067312917545536,
        "lon": 32.74352866904341,
        "alt_km": 21514.197489270497,
        "timestamp": "2025-12-24T16:52:41.797277+00:00",
        "meta_object_name": "BEIDOU-3 M22 (C44)",
        "meta_object_id": "2019-078A",
        "meta_epoch": "2025-12-22T23:04:03.320256",
        "meta_mean_motion": 1.86232206,
        "meta_eccentricity": 0.00060944,
        "meta_inclination": 54.0989,
        "meta_ra_of_asc_node": 306.0279,
        "meta_arg_of_pericenter": 24.0205,
        "meta_mean_anomaly": 336.0117,
        "meta_ephemeris_type": 0,
        "meta_classification_type": "U",
        "meta_norad_cat_id": 44793,
        "meta_element_set_no": 999,
        "meta_rev_at_epoch": 4136,
        "meta_bstar": 0,
        "meta_mean_motion_dot": -5.4e-07,
        "meta_mean_motion_ddot": 0,
        "tle_line1": "1 44793U 19078A   25356.96114954 -.00000054  00000+0  00000+0 0  9990",
        "tle_line2": "2 44793  54.0989 306.0279 0006094  24.0205 336.0117  1.86232206 41368"
      },
      "geometry": {
        "type": "Point",
        "coordinates": [
          32.74352866904341,
          54.067312917545536
        ]
      }
    }
  ]
}